{"type": "FeatureCollection", "features": [ {"type": "Feature", "properties": {"norad_id": 33799, "name": "COSMOS 2251 DEB", "group": "cosmos-2251-debris", "lat": -54.42289954938278, "lon": -82.50111673177128, "alt_km": 638.3133688338839, "timestamp": "2025-12-16T17:51:11.324879+00:00", "meta": {"OBJECT_NAME": "COSMOS 2251 DEB", "OBJECT_ID": "1993-036AQ", "EPOCH": "2025-12-15T17:10:00.564384", "MEAN_MOTION": 14.79644779, "ECCENTRICITY": 0.00231521, "INCLINATION": 74.0321, "RA_OF_ASC_NODE": 75.9276, "ARG_OF_PERICENTER": 145.527, "MEAN_ANOMALY": 15.1444, "EPHEMERIS_TYPE": 0, "CLASSIFICATION_TYPE": "U", "NORAD_CAT_ID": 33799, "ELEMENT_SET_NO": 999, "REV_AT_EPOCH": 88855, "BSTAR": 0.0007501114, "MEAN_MOTION_DOT": 5.623e-05, "MEAN_MOTION_DDOT": 0}, "tle": {"line1": "1 33799U 93036AQ  25349.71528431  .00005623  00000+0  75011-3 0  9998", "line2": "2 33799  74.0321  75.9276 0023152 145.5270  15.1444 14.79644779888554"}}, "geometry": {"type": "Point", "coordinates": [-82.50111673177128, -54.42289954938278]}}, {"type": "Feature", "properties": {"norad_id": 33805, "name": "COSMOS 2251 DEB", "group": "cosmos-2251-debris", "lat": 54.42603682029662, "lon": -32.68560506237448, "alt_km": 682.4012972058963, "timestamp": "2025-12-16T17:51:11.324890+00:00", "meta": {"OBJECT_NAME": "COSMOS 2251 DEB", "OBJECT_ID": "1993-036AW", "EPOCH": "2025-12-15T21:49:31.099872", "MEAN_MOTION": 14.57862801, "ECCENTRICITY": 0.00601057, "INCLINATION": 74.0309, "RA_OF_ASC_NODE": 305.3009, "ARG_OF_PERICENTER": 133.3426, "MEAN_ANOMALY": 227.2771, "EPHEMERIS_TYPE": 0, "CLASSIFICATION_TYPE": "U", "NORAD_CAT_ID": 33805, "ELEMENT_SET_NO": 999, "REV_AT_EPOCH": 89273, "BSTAR": 0.00022977111, "MEAN_MOTION_DOT": 1.049e-05, "MEAN_MOTION_DDOT": 0}, "tle": {"line1": "1 33805U 93036AW  25349.90938773  .00001049  00000+0  22977-3 0  9992", "line2": "2 33805  74.0309 305.3009 0060105 133.3426 227.2771 14.57862801892737"}}, "geometry": {"type": "Point", "coordinates": [-32.68560506237448, 54.42603682029662]}}, {"type": "Feature", "properties": {"norad_id": 33811, "name": "COSMOS 2251 DEB", "group": "cosmos-2251-debris", "lat": -64.6752726272247, "lon": 152.14801833189424, "alt_km": 569.1884450249672, "timestamp": "2025-12-16T17:51:11.324901+00:00", "meta": {"OBJECT_NAME": "COSMOS 2251 DEB", "OBJECT_ID": "1993-036BC", "EPOCH": "2025-12-15T21:51:05.103936", "MEAN_MOTION": 15.0536846, "ECCENTRICITY": 0.00308729, "INCLINATION": 73.8375, "RA_OF_ASC_NODE": 296.08, "ARG_OF_PERICENTER": 16.427, "MEAN_ANOMALY": 39.4491, "EPHEMERIS_TYPE": 0, "CLASSIFICATION_TYPE": "U", "NORAD_CAT_ID": 33811, "ELEMENT_SET_NO": 999, "REV_AT_EPOCH": 90066, "BSTAR": 0.00075011548, "MEAN_MOTION_DOT": 0.00010839, "MEAN_MOTION_DDOT": 0}, "tle": {"line1": "1 33811U 93036BC  25349.91047574  .00010839  00000+0  75012-3 0  9995", "line2": "2 33811  73.8375 296.0800 0030872  16.4270  39.4491 15.05368460900665"}}, "geometry": {"type": "Point", "coordinates": [152.14801833189424, -64.6752726272247]}}, {"type": "Feature", "properties": {"norad_id": 33815, "name": "COSMOS 2251 DEB", "group": "cosmos-2251-debris", "lat": 28.613920416093105, "lon": -20.869481772124654, "alt_km": 507.3406155149587, "timestamp": "2025-12-16T17:51:11.324911+00:00", "meta": {"OBJECT_NAME": "COSMOS 2251 DEB", "OBJECT_ID": "1993-036BG", "EPOCH": "2025-12-15T22:45:38.141568", "MEAN_MOTION": 15.1890546, "ECCENTRICITY": 0.00014023, "INCLINATION": 73.9513, "RA_OF_ASC_NODE": 169.8384, "ARG_OF_PERICENTER": 258.5804, "MEAN_ANOMALY": 223.1222, "EPHEMERIS_TYPE": 0, "CLASSIFICATION_TYPE": "U", "NORAD_CAT_ID": 33815, "ELEMENT_SET_NO": 999, "REV_AT_EPOCH": 88419, "BSTAR": 0.0048263549, "MEAN_MOTION_DOT": 0.00102163, "MEAN_MOTION_DDOT": 0}, "tle": {"line1": "1 33815U 93036BG  25349.94835812  .00102163  00000+0  48264-2 0  9992", "line2": "2 33815  73.9513 169.8384 0001402 258.5804 223.1222 15.18905460884191"}}, "geometry": {"type": "Point", "coordinates": [-20.869481772124654, 28.613920416093105]}}, {"type": "Feature", "properties": {"norad_id": 33816, "name": "COSMOS 2251 DEB", "group": "cosmos-2251-debris", "lat": -22.918738159165645, "lon": -74.37385384066312, "alt_km": 967.7220372453912, "timestamp": "2025-12-16T17:51:11.324921+00:00", "meta": {"OBJECT_NAME": "COSMOS 2251 DEB", "OBJECT_ID": "1993-036BH", "EPOCH": "2025-12-15T11:21:36.188928", "MEAN_MOTION": 13.81786653, "ECCENTRICITY": 0.02645539, "INCLINATION": 73.8951, "RA_OF_ASC_NODE": 100.7627, "ARG_OF_PERICENTER": 113.1559, "MEAN_ANOMALY": 249.7673, "EPHEMERIS_TYPE": 0, "CLASSIFICATION_TYPE": "U", "NORAD_CAT_ID": 33816, "ELEMENT_SET_NO": 999, "REV_AT_EPOCH": 84711, "BSTAR": 0.00041344163, "MEAN_MOTION_DOT": 5.56e-06, "MEAN_MOTION_DDOT": 0}, "tle": {"line1": "1 33816U 93036BH  25349.47333552  .00000556  00000+0  41344-3 0  9991", "line2": "2 33816  73.8951 100.7627 0264553 113.1559 249.7673 13.81786653847116"}}, "geometry": {"type": "Point", "coordinates": [-74.37385384066312, -22.918738159165645]}}, {"type": "Feature", "properties": {"norad_id": 33818, "name": "COSMOS 2251 DEB", "group": "cosmos-2251-debris", "lat": -45.53187578848248, "lon": 141.0540300338137, "alt_km": 551.7269310806314, "timestamp": "2025-12-16T17:51:11.324932+00:00", "meta": {"OBJECT_NAME": "COSMOS 2251 DEB", "OBJECT_ID": "1993-036BK", "EPOCH": "2025-12-15T21:56:39.911712", "MEAN_MOTION": 15.12758016, "ECCENTRICITY": 0.00262923, "INCLINATION": 74.0761, "RA_OF_ASC_NODE": 159.6779, "ARG_OF_PERICENTER": 147.2138, "MEAN_ANOMALY": 329.197, "EPHEMERIS_TYPE": 0, "CLASSIFICATION_TYPE": "U", "NORAD_CAT_ID": 33818, "ELEMENT_SET_NO": 999, "REV_AT_EPOCH": 89910, "BSTAR": 0.0018708056, "MEAN_MOTION_DOT": 0.000332, "MEAN_MOTION_DDOT": 0}, "tle": {"line1": "1 33818U 93036BK  25349.91435083  .00033200  00000+0  18708-2 0  9993", "line2": "2 33818  74.0761 159.6779 0026292 147.2138 329.1970 15.12758016899105"}}, "geometry": {"type": "Point", "coordinates": [141.0540300338137, -45.53187578848248]}}, {"type": "Feature", "properties": {"norad_id": 33819, "name": "COSMOS 2251 DEB", "group": "cosmos-2251-debris", "lat": -3.1666946101794364, "lon": -158.29528639656382, "alt_km": 760.7429378516417, "timestamp": "2025-12-16T17:51:11.324942+00:00", "meta": {"OBJECT_NAME": "COSMOS 2251 DEB", "OBJECT_ID": "1993-036BL", "EPOCH": "2025-12-15T13:29:18.587616", "MEAN_MOTION": 14.32234026, "ECCENTRICITY": 0.00891709, "INCLINATION": 74.1786, "RA_OF_ASC_NODE": 204.7407, "ARG_OF_PERICENTER": 65.209, "MEAN_ANOMALY": 321.2837, "EPHEMERIS_TYPE": 0, "CLASSIFICATION_TYPE": "U", "NORAD_CAT_ID": 33819, "ELEMENT_SET_NO": 999, "REV_AT_EPOCH": 87536, "BSTAR": 0.00052447987, "MEAN_MOTION_DOT": 1.453e-05, "MEAN_MOTION_DDOT": 0}, "tle": {"line1": "1 33819U 93036BL  25349.56202069  .00001453  00000+0  52448-3 0  9996", "line2": "2 33819  74.1786 204.7407 0089170  65.2090 321.2837 14.32234026875362"}}, "geometry": {"type": "Point", "coordinates": [-158.29528639656382, -3.1666946101794364]}}, {"type": "Feature", "properties": {"norad_id": 33821, "name": "COSMOS 2251 DEB", "group": "cosmos-2251-debris", "lat": -57.93286107815269, "lon": 107.16724701191681, "alt_km": 519.1542800133229, "timestamp": "2025-12-16T17:51:11.324953+00:00", "meta": {"OBJECT_NAME": "COSMOS 2251 DEB", "OBJECT_ID": "1993-036BN", "EPOCH": "2025-12-15T20:05:29.061888", "MEAN_MOTION": 15.25509613, "ECCENTRICITY": 0.0051155, "INCLINATION": 74.0287, "RA_OF_ASC_NODE": 136.2874, "ARG_OF_PERICENTER": 168.6788, "MEAN_ANOMALY": 191.5577, "EPHEMERIS_TYPE": 0, "CLASSIFICATION_TYPE": "U", "NORAD_CAT_ID": 33821, "ELEMENT_SET_NO": 999, "REV_AT_EPOCH": 75048, "BSTAR": 0.0009192819, "MEAN_MOTION_DOT": 0.00024224, "MEAN_MOTION_DDOT": 0}, "tle": {"line1": "1 33821U 93036BN  25349.83714192  .00024224  00000+0  91928-3 0  9991", "line2": "2 33821  74.0287 136.2874 0051155 168.6788 191.5577 15.25509613750485"}}, "geometry": {"type": "Point", "coordinates": [107.16724701191681, -57.93286107815269]}}, {"type": "Feature", "properties": {"norad_id": 33822, "name": "COSMOS 2251 DEB", "group": "cosmos-2251-debris", "lat": -74.05781245751614, "lon": 95.75214194623211, "alt_km": 767.7285502222312, "timestamp": "2025-12-16T17:51:11.324964+00:00", "meta": {"OBJECT_NAME": "COSMOS 2251 DEB", "OBJECT_ID": "1993-036BP", "EPOCH": "2025-12-15T13:32:31.865280", "MEAN_MOTION": 14.13084218, "ECCENTRICITY": 0.01530652, "INCLINATION": 74.0691, "RA_OF_ASC_NODE": 188.6961, "ARG_OF_PERICENTER": 234.3446, "MEAN_ANOMALY": 155.8468, "EPHEMERIS_TYPE": 0, "CLASSIFICATION_TYPE": "U", "NORAD_CAT_ID": 33822, "ELEMENT_SET_NO": 999, "REV_AT_EPOCH": 86094, "BSTAR": 0.00090750555, "MEAN_MOTION_DOT": 1.87e-05, "MEAN_MOTION_DDOT": 0}, "tle": {"line1": "1 33822U 93036BP  25349.56425770  .00001870  00000+0  90751-3 0  9998", "line2": "2 33822  74.0691 188.6961 0153065 234.3446 155.8468 14.13084218860948"}}, "geometry": {"type": "Point", "coordinates": [95.75214194623211, -74.05781245751614]}}, {"type": "Feature", "properties": {"norad_id": 33823, "name": "COSMOS 2251 DEB", "group": "cosmos-2251-debris", "lat": -61.92901583087848, "lon": -4.676225330059606, "alt_km": 760.7837958886703, "timestamp": "2025-12-16T17:51:11.324975+00:00", "meta": {"OBJECT_NAME": "COSMOS 2251 DEB", "OBJECT_ID": "1993-036BQ", "EPOCH": "2025-12-15T11:45:44.011872", "MEAN_MOTION": 13.98957035, "ECCENTRICITY": 0.02093465, "INCLINATION": 73.809, "RA_OF_ASC_NODE": 144.5099, "ARG_OF_PERICENTER": 269.2235, "MEAN_ANOMALY": 146.3181, "EPHEMERIS_TYPE": 0, "CLASSIFICATION_TYPE": "U", "NORAD_CAT_ID": 33823, "ELEMENT_SET_NO": 999, "REV_AT_EPOCH": 85648, "BSTAR": 0.00079713253, "MEAN_MOTION_DOT": 1.362e-05, "MEAN_MOTION_DDOT": 0}, "tle": {"line1": "1 33823U 93036BQ  25349.49009273  .00001362  00000+0  79713-3 0  9998", "line2": "2 33823  73.8090 144.5099 0209346 269.2235 146.3181 13.98957035856488"}}, "geometry": {"type": "Point", "coordinates": [-4.676225330059606, -61.92901583087848]}}]}